NORAD_CAT_ID,OBJECT_NAME,OBJECT_TYPE,EPOCH,MEAN_MOTION,ECCENTRICITY,INCLINATION,RA_OF_ASC_NODE,ARG_OF_PERICENTER,MEAN_ANOMALY,BSTAR,MEAN_MOTION_DOT,MEAN_MOTION_DDOT,TLE_LINE0,TLE_LINE1,TLE_LINE2,SEMIMAJOR_AXIS,PERIOD,APOGEE,PERIGEE,DECAYED
53136.0,STARLINK-4152,PAYLOAD,2024-06-14 05:23:20,15.08832987,0.0001336,53.2169,137.8549,93.1982,266.9163,9.7887e-06,-1.32e-06,0.0,0 STARLINK-4152,1 53136U 22083E   24166.22454752 -.00000132  00000-0  97887-5 0  9994,2 53136  53.2169 137.8549 0001336  93.1982 266.9163 15.08832987106212,6917.902,95.438,540.691,538.843,0.0
53136.0,STARLINK-4152,PAYLOAD,2024-06-14 14:55:39,15.08836358,0.0001355,53.2173,136.0708,92.5174,267.5973,4.2097e-05,3.82e-06,0.0,0 STARLINK-4152,1 53136U 22083E   24166.62198562  .00000382  00000-0  42097-4 0  9990,2 53136  53.2173 136.0708 0001355  92.5174 267.5973 15.08836358106630,6917.892,95.438,540.694,538.819,0.0
53136.0,STARLINK-4152,PAYLOAD,2024-06-15 14:46:26,15.08843376,0.0001334,53.2176,131.6108,89.2358,270.8787,6.3093e-06,-1.87e-06,0.0,0 STARLINK-4152,1 53136U 22083E   24167.61558208 -.00000187  00000-0  63093-5 0  9991,2 53136  53.2176 131.6108 0001334  89.2358 270.8787 15.08843376106786,6917.87,95.437,540.658,538.812,0.0
53136.0,STARLINK-4152,PAYLOAD,2024-06-16 05:04:54,15.0884103,0.0001425,53.2171,128.932,89.0455,271.07,5.5321e-05,5.93e-06,0.0,0 STARLINK-4152,1 53136U 22083E   24168.21174352  .00000593  00000-0  55321-4 0  9996,2 53136  53.2171 128.9320 0001425  89.0455 271.0700 15.08841030106876,6917.877,95.437,540.728,538.756,0.0
53136.0,STARLINK-4152,PAYLOAD,2024-06-16 20:58:46,15.08834325,0.0001358,53.2167,125.9591,85.2603,274.8544,-5.5942e-06,-3.77e-06,0.0,0 STARLINK-4152,1 53136U 22083E   24168.87415076 -.00000377  00000-0 -55942-5 0  9991,2 53136  53.2167 125.9591 0001358  85.2603 274.8544 15.08834325106973,6917.898,95.438,540.702,538.823,0.0
53136.0,STARLINK-4152,PAYLOAD,2024-06-17 14:28:01,15.08824467,0.0001571,53.2177,122.6887,89.6598,270.4574,0.00026729,3.967e-05,0.0,0 STARLINK-4152,1 53136U 22083E   24169.60279149  .00003967  00000-0  26729-3 0  9997,2 53136  53.2177 122.6887 0001571  89.6598 270.4574 15.08824467107088,6917.928,95.439,540.88,538.706,0.0
53136.0,STARLINK-4152,PAYLOAD,2024-06-18 01:35:42,15.08845496,0.0001567,53.2173,120.6067,84.4796,275.6374,9.2204e-05,1.18e-05,0.0,0 STARLINK-4152,1 53136U 22083E   24170.06646131  .00001180  00000-0  92204-4 0  9995,2 53136  53.2173 120.6067 0001567  84.4796 275.6374 15.08845496106797,6917.864,95.437,540.813,538.645,0.0
53136.0,STARLINK-4152,PAYLOAD,2024-06-18 14:18:47,15.08846674,0.0001358,53.2172,118.2272,92.582,267.5328,3.438e-05,2.59e-06,0.0,0 STARLINK-4152,1 53136U 22083E   24170.59637964  .00000259  00000-0  34380-4 0  9994,2 53136  53.2172 118.2272 0001358  92.5820 267.5328 15.08846674107231,6917.86,95.437,540.664,538.786,0.0
53136.0,STARLINK-4152,PAYLOAD,2024-06-18 20:40:20,15.08819202,0.0001535,53.2176,117.039,91.3311,268.7857,0.0001819,2.607e-05,0.0,0 STARLINK-4152,1 53136U 22083E   24170.86135388  .00002607  00000-0  18190-3 0  9996,2 53136  53.2176 117.0390 0001535  91.3311 268.7857 15.08819202106913,6917.944,95.439,540.871,538.747,0.0
53136.0,STARLINK-4152,PAYLOAD,2024-06-19 03:01:53,15.08833969,0.0001573,53.2174,115.8486,94.2,265.9172,8.6943e-05,1.096e-05,0.0,0 STARLINK-4152,1 53136U 22083E   24171.12630832  .00001096  00000-0  86943-4 0  9993,2 53136  53.2174 115.8486 0001573  94.2000 265.9172 15.08833969106951,6917.899,95.438,540.852,538.676,0.0
53136.0,STARLINK-4152,PAYLOAD,2024-06-19 06:12:39,15.08837437,0.0001442,53.2178,115.2542,97.6588,262.4568,1.7289e-05,-1.3e-07,0.0,0 STARLINK-4152,1 53136U 22083E   24171.25878798 -.00000013  00000-0  17289-4 0  9998,2 53136  53.2178 115.2542 0001442  97.6588 262.4568 15.08837437107333,6917.888,95.438,540.751,538.756,0.0
53136.0,STARLINK-4152,PAYLOAD,2024-06-20 12:24:59,15.08836661,0.0001544,53.2176,109.6036,94.616,265.5008,8.1931e-06,-1.58e-06,0.0,0 STARLINK-4152,1 53136U 22083E   24172.51735070 -.00000158  00000-0  81931-5 0  9999,2 53136  53.2176 109.6036 0001544  94.6160 265.5008 15.08836661107524,6917.891,95.438,540.824,538.687,0.0
53136.0,STARLINK-4152,PAYLOAD,2024-06-20 23:32:41,15.08832788,0.0001358,53.2171,107.5226,95.3511,264.7636,2.187e-05,6e-07,0.0,0 STARLINK-4152,1 53136U 22083E   24172.98103350  .00000060  00000-0  21870-4 0  9996,2 53136  53.2171 107.5226 0001358  95.3511 264.7636 15.08832788107230,6917.902,95.438,540.707,538.828,0.0
53136.0,STARLINK-4152,PAYLOAD,2024-06-21 02:43:27,15.08837409,0.0001347,53.2172,106.9287,92.9483,267.1663,7.1802e-05,8.55e-06,0.0,0 STARLINK-4152,1 53136U 22083E   24173.11350963  .00000855  00000-0  71802-4 0  9998,2 53136  53.2172 106.9287 0001347  92.9483 267.1663 15.08837409107614,6917.888,95.438,540.685,538.821,0.0
53136.0,STARLINK-4152,PAYLOAD,2024-06-22 04:09:37,15.0883963,0.0001211,53.217,102.1721,89.9348,270.1783,2.9885e-05,1.88e-06,0.0,0 STARLINK-4152,1 53136U 22083E   24174.17335302  .00000188  00000-0  29885-4 0  9998,2 53136  53.2170 102.1721 0001211  89.9348 270.1783 15.08839630107412,6917.882,95.438,540.584,538.909,0.0
53136.0,STARLINK-4152,PAYLOAD,2024-06-23 04:00:24,15.08841089,0.0001454,53.2184,97.7091,94.9363,265.1795,8.8392e-05,1.119e-05,0.0,0 STARLINK-4152,1 53136U 22083E   24175.16695237  .00001119  00000-0  88392-4 0  9997,2 53136  53.2184  97.7091 0001454  94.9363 265.1795 15.08841089107922,6917.877,95.437,540.748,538.736,0.0
53136.0,STARLINK-4152,PAYLOAD,2024-06-23 18:18:53,15.08839983,0.0001456,53.2182,95.035,98.0037,262.1121,6.2373e-05,7.05e-06,0.0,0 STARLINK-4152,1 53136U 22083E   24175.76311356  .00000705  00000-0  62373-4 0  9991,2 53136  53.2182  95.0350 0001456  98.0037 262.1121 15.08839983107654,6917.88,95.438,540.753,538.738,0.0
53136.0,STARLINK-4152,PAYLOAD,2024-06-24 03:51:10,15.08850368,0.0001302,53.2173,93.2483,101.101,259.0129,0.00011973,1.619e-05,0.0,0 STARLINK-4152,1 53136U 22083E   24176.16054334  .00001619  00000-0  11973-3 0  9990,2 53136  53.2173  93.2483 0001302 101.1010 259.0129 15.08850368107718,6917.849,95.437,540.614,538.813,0.0
53136.0,STARLINK-4152,PAYLOAD,2024-06-25 00:31:12,15.08841465,0.0001434,53.2174,89.3829,105.7422,254.3729,-7.4229e-06,-4.06e-06,0.0,0 STARLINK-4152,1 53136U 22083E   24177.02167327 -.00000406  00000-0 -74229-5 0  9993,2 53136  53.2174  89.3829 0001434 105.7422 254.3729 15.08841465107848,6917.876,95.437,540.733,538.749,0.0
53136.0,STARLINK-4152,PAYLOAD,2024-06-25 22:46:36,15.08845133,0.0001501,53.2181,85.2203,89.6403,270.4761,-2.219e-05,-6.41e-06,0.0,0 STARLINK-4152,1 53136U 22083E   24177.94903211 -.00000641  00000-0 -22190-4 0  9994,2 53136  53.2181  85.2203 0001501  89.6403 270.4761 15.08845133108348,6917.865,95.437,540.768,538.691,0.0
53136.0,STARLINK-4152,PAYLOAD,2024-06-26 00:21:59,15.08846214,0.0001485,53.2178,84.9226,89.6834,270.4328,-1.3378e-05,-5.01e-06,0.0,0 STARLINK-4152,1 53136U 22083E   24178.01527086 -.00000501  00000-0 -13378-4 0  9998,2 53136  53.2178  84.9226 0001485  89.6834 270.4328 15.08846214108355,6917.861,95.437,540.754,538.699,0.0
53136.0,STARLINK-4152,PAYLOAD,2024-06-26 22:37:23,15.08842016,0.0001502,53.2181,80.7569,94.4756,265.6408,-1.9748e-05,-6.02e-06,0.0,0 STARLINK-4152,1 53136U 22083E   24178.94263309 -.00000602  00000-0 -19748-4 0  9994,2 53136  53.2181  80.7569 0001502  94.4756 265.6408 15.08842016108496,6917.874,95.437,540.778,538.7,0.0
53136.0,STARLINK-4152,PAYLOAD,2024-06-27 20:52:48,15.08834472,0.000158,53.218,76.5981,112.3643,247.7517,-3.6188e-05,-8.64e-06,0.0,0 STARLINK-4152,1 53136U 22083E   24179.87000078 -.00000864  00000-0 -36188-4 0  9996,2 53136  53.2180  76.5981 0001580 112.3643 247.7517 15.08834472108272,6917.897,95.438,540.855,538.669,0.0
53136.0,STARLINK-4152,PAYLOAD,2024-06-27 22:28:11,15.08834155,0.0001495,53.2176,76.2986,109.1926,250.9228,-4.1529e-05,-9.49e-06,0.0,0 STARLINK-4152,1 53136U 22083E   24179.93624117 -.00000949  00000-0 -41529-4 0  9998,2 53136  53.2176  76.2986 0001495 109.1926 250.9228 15.08834155108646,6917.898,95.438,540.797,538.729,0.0
53136.0,STARLINK-4152,PAYLOAD,2024-06-28 09:35:52,15.0884446,0.0001142,53.2173,74.2223,111.3637,248.7477,-5.3634e-06,-3.73e-06,0.0,0 STARLINK-4152,1 53136U 22083E   24180.39991359 -.00000373  00000-0 -53634-5 0  9997,2 53136  53.2173  74.2223 0001142 111.3637 248.7477 15.08844460108357,6917.867,95.437,540.522,538.942,0.0
53136.0,STARLINK-4152,PAYLOAD,2024-06-28 22:18:57,15.08843705,0.0001207,53.2158,71.8365,64.9237,295.188,0.00015506,2.181e-05,0.0,0 STARLINK-4152,1 53136U 22083E   24180.92982864  .00002181  00000-0  15506-3 0  9998,2 53136  53.2158  71.8365 0001207  64.9237 295.1880 15.08843705108794,6917.869,95.437,540.569,538.899,0.0
53136.0,STARLINK-4152,PAYLOAD,2024-06-28 23:54:19,15.08849727,0.0001396,53.2175,71.5489,113.254,246.8599,0.00020084,2.911e-05,0.0,0 STARLINK-4152,1 53136U 22083E   24180.99606306  .00002911  00000-0  20084-3 0  9997,2 53136  53.2175  71.5489 0001396 113.2540 246.8599 15.08849727108443,6917.851,95.437,540.681,538.75,0.0
53136.0,STARLINK-4152,PAYLOAD,2024-06-29 17:23:38,15.08815423,0.0001058,53.2161,68.2691,353.1228,6.975,-0.00015712,-2.786e-05,0.0,0 STARLINK-4152,1 53136U 22083E   24181.72474621 -.00002786  00000-0 -15712-3 0  9996,2 53136  53.2161  68.2691 0001058 353.1228   6.9750 15.08815423108551,6917.956,95.439,540.552,539.089,0.0
53136.0,STARLINK-4152,PAYLOAD,2024-06-29 22:09:47,15.08812049,0.000104,53.2157,67.3749,80.708,279.4029,-0.00019556,-3.396e-05,0.0,0 STARLINK-4152,1 53136U 22083E   24181.92347112 -.00003396  00000-0 -19556-3 0  9990,2 53136  53.2157  67.3749 0001040  80.7080 279.4029 15.08812049108940,6917.966,95.439,540.55,539.111,0.0
53136.0,STARLINK-4152,PAYLOAD,2024-06-30 09:17:28,15.08834044,7.64e-05,53.2166,65.2958,88.131,271.9769,-5.5347e-06,-3.76e-06,0.0,0 STARLINK-4152,1 53136U 22083E   24182.38713430 -.00000376  00000-0 -55347-5 0  9996,2 53136  53.2166  65.2958 0000764  88.1310 271.9769 15.08834044108654,6917.899,95.438,540.292,539.235,0.0
